OBJECT_NAME,OBJECT_ID,EPOCH,MEAN_MOTION,ECCENTRICITY,INCLINATION,RA_OF_ASC_NODE,ARG_OF_PERICENTER,MEAN_ANOMALY,EPHEMERIS_TYPE,CLASSIFICATION_TYPE,NORAD_CAT_ID,ELEMENT_SET_NO,REV_AT_EPOCH,BSTAR,MEAN_MOTION_DOT,MEAN_MOTION_DDOT
SIRION PATHFINDER-2,2018-099B,2026-06-26T16:41:18.753216,15.14627414,.0007112,97.4251,226.5266,264.2955,95.7466,0,U,43759,999,41406,.27128E-3,.495E-4,0
CORVUS BC4,2018-099K,2026-06-26T13:58:50.840832,15.12565566,.0007261,97.4066,220.2876,339.9581,20.1364,0,U,43767,999,41382,.25694E-3,.442E-4,0
M2 PATHFINDER,2020-037E,2026-06-26T11:45:30.553344,15.04708030,.0012564,97.8135,8.8257,119.4503,240.7978,0,U,45727,999,32689,.21205E-3,.2926E-4,0
NETSAT-4,2020-068U,2026-06-26T04:45:10.700928,15.44149820,.00031685,97.8601,186.1637,289.3785,70.7119,0,U,46504,999,31716,.42746823E-3,.19512E-3,0
NETSAT-3,2020-068V,2026-06-26T06:37:30.618912,15.42978668,.0003131,97.8652,184.4532,318.1999,41.9007,0,U,46505,999,31708,.46733E-3,.20517E-3,0
NETSAT-1,2020-068W,2026-06-26T17:16:24.525984,15.34850716,.0003826,97.8742,179.1504,0.9028,359.2220,0,U,46506,999,31676,.34305E-3,.11512E-3,0
NETSAT-2,2020-068X,2026-06-26T11:37:20.299008,15.46383273,.0001976,97.8613,186.4021,351.4742,8.6472,0,U,46507,999,31717,.43836E-3,.21599E-3,0
GREENCUBE (IO-117),2022-080E,2026-06-26T16:16:29.555040,6.42583228,.0008985,70.1443,294.9444,287.5436,72.4241,0,U,53109,999,9267,0,-.3E-7,0
SITRO-AIS 5 (KATYS),2023-091L,2026-06-26T16:29:02.268384,15.29664216,.001241,97.5063,241.6771,73.9897,286.2709,0,U,57176,999,16579,.40948E-3,.11724E-3,0
SITRO-AIS 6 (CHIRKIN),2023-091AC,2026-06-26T13:21:34.767360,15.26105071,.0012864,97.5070,240.6147,77.5614,282.7062,0,U,57192,999,16571,.39103E-3,.10039E-3,0
SITRO-AIS 8 (ANOKHIN),2023-091AD,2026-06-26T16:29:29.488704,15.32380970,.0011344,97.5059,243.3050,70.4470,289.7995,0,U,57193,999,16590,.46158E-3,.14391E-3,0
SITRO-AIS 7 (FARTUSHNIY),2023-091AE,2026-06-26T16:37:45.708096,15.25791974,.0012749,97.5068,240.5718,78.1081,282.1586,0,U,57194,999,16572,.36882E-3,.9375E-4,0
SITRO-AIS 10 (BURDAEV),2023-091AK,2026-06-26T17:50:36.498336,15.38958881,.0006689,97.5085,248.5154,50.9778,309.2062,0,U,57199,999,16623,.4779E-3,.18379E-3,0
SITRO-AIS 9 (SHCHUKIN),2023-091AM,2026-06-26T15:25:44.076000,15.38455146,.0006968,97.5083,248.1348,51.3010,308.8857,0,U,57201,999,16620,.47014E-3,.17784E-3,0
SITRO-AIS 12 (SMIRENNIY),2023-091AQ,2026-06-26T16:43:16.652064,15.38750568,.0006446,97.5095,248.6631,45.9343,314.2432,0,U,57204,999,16623,.47789E-3,.18252E-3,0
SITRO-AIS 11 (SHEFFER),2023-091AU,2026-06-26T16:58:47.487648,15.39180638,.0006327,97.5095,248.9268,45.4657,314.7104,0,U,57208,999,16625,.4664E-3,.18063E-3,0
SITRO-AIS 25,2024-039R,2026-06-26T18:08:29.567328,14.93556074,.0142589,95.3908,241.6680,294.9133,63.7330,0,U,59066,999,12615,.16965E-3,.2147E-4,0
SITRO-AIS 26,2024-039S,2026-06-26T18:12:21.305088,14.93350299,.0142947,95.3909,241.5655,295.5030,63.1468,0,U,59067,999,12614,.16856E-3,.2123E-4,0
SITRO-AIS 27,2024-039T,2026-06-26T15:49:11.136288,14.93772069,.0141878,95.3913,241.7732,294.4224,64.2253,0,U,59068,999,12615,.23964E-3,.3061E-4,0
SITRO-AIS 28,2024-039U,2026-06-26T18:29:18.711744,14.93804330,.0141883,95.3910,241.8975,293.8555,64.7856,0,U,59071,999,12617,.20442E-3,.2608E-4,0
GRBBETA,2024-128C,2026-06-26T13:52:03.578016,15.06690888,.00394513,61.9878,183.3174,136.6258,223.7951,0,U,60237,999,10768,.22892756E-3,.3256E-4,0
OOV-CUBE (TUBSAT-30),2024-128F,2026-06-26T07:18:12.045312,15.02804000,.00434971,61.9924,193.7808,135.8027,224.6553,0,U,60240,999,10748,.13798353E-3,.1677E-4,0
ROBUSTA-3A (MEDITERRANEE),2024-128J,2026-06-26T07:53:52.289088,15.11754630,.0040139,61.9842,175.9128,130.0414,230.4214,0,U,60243,999,10780,.33331E-3,.5597E-4,0
LASARSAT,2024-247Q,2026-06-26T12:50:50.696736,15.46893107,.0007194,44.9728,209.6636,27.8989,332.2285,0,U,62391,999,8476,.57325E-3,.29264E-3,0
CROCUBE,2024-247T,2026-06-24T09:26:02.551776,15.48681185,.00072263,44.9701,218.9251,18.8099,341.3058,0,U,62394,999,8446,.56516968E-3,.30725E-3,0
FORESAIL-1 PRIME,2025-276DS,2026-06-26T16:21:50.226912,15.18782211,.0003907,97.4202,250.7789,84.1634,276.0046,0,U,66778,999,3184,.2493E-3,.5118E-4,0
KNACKSAT-2,1998-067XZ,2026-06-26T10:40:36.323040,15.60782463,.0008675,51.6280,247.8833,257.0459,102.9566,0,U,67683,999,2172,.58452E-3,.49509E-3,0
