SIRION PATHFINDER-2     
1 43759U 18099B   26177.69535594  .00004950  00000+0  27128-3 0  9994
2 43759  97.4251 226.5266 0007112 264.2955  95.7466 15.14627414414068
CORVUS BC4              
1 43767U 18099K   26177.58253288  .00004420  00000+0  25694-3 0  9996
2 43767  97.4066 220.2876 0007261 339.9581  20.1364 15.12565566413828
M2 PATHFINDER           
1 45727U 20037E   26177.48993696  .00002926  00000+0  21205-3 0  9995
2 45727  97.8135   8.8257 0012564 119.4503 240.7978 15.04708030326894
NETSAT-4                
1 46504U 20068U   26177.19804052  .00019512  00000+0  42747-3 0  9991
2 46504  97.8601 186.1637 0003168 289.3785  70.7119 15.44149820317165
NETSAT-3                
1 46505U 20068V   26177.27604883  .00020517  00000+0  46733-3 0  9997
2 46505  97.8652 184.4532 0003131 318.1999  41.9007 15.42978668317080
NETSAT-1                
1 46506U 20068W   26177.71972831  .00011512  00000+0  34305-3 0  9995
2 46506  97.8742 179.1504 0003826   0.9028 359.2220 15.34850716316761
NETSAT-2                
1 46507U 20068X   26177.48426272  .00021599  00000+0  43836-3 0  9998
2 46507  97.8613 186.4021 0001976 351.4742   8.6472 15.46383273317177
GREENCUBE (IO-117)      
1 53109U 22080E   26177.67811985 -.00000003  00000+0  00000+0 0  9990
2 53109  70.1443 294.9444 0008985 287.5436  72.4241  6.42583228 92674
SITRO-AIS 5 (KATYS)     
1 57176U 23091L   26177.68683181  .00011724  00000+0  40948-3 0  9997
2 57176  97.5063 241.6771 0012410  73.9897 286.2709 15.29664216165791
SITRO-AIS 6 (CHIRKIN)   
1 57192U 23091AC  26177.55665240  .00010039  00000+0  39103-3 0  9996
2 57192  97.5070 240.6147 0012864  77.5614 282.7062 15.26105071165714
SITRO-AIS 8 (ANOKHIN)   
1 57193U 23091AD  26177.68714686  .00014391  00000+0  46158-3 0  9993
2 57193  97.5059 243.3050 0011344  70.4470 289.7995 15.32380970165902
SITRO-AIS 7 (FARTUSHNIY)
1 57194U 23091AE  26177.69289014  .00009375  00000+0  36882-3 0  9996
2 57194  97.5068 240.5718 0012749  78.1081 282.1586 15.25791974165721
SITRO-AIS 10 (BURDAEV)  
1 57199U 23091AK  26177.74347799  .00018379  00000+0  47790-3 0  9996
2 57199  97.5085 248.5154 0006689  50.9778 309.2062 15.38958881166237
SITRO-AIS 9 (SHCHUKIN)  
1 57201U 23091AM  26177.64287125  .00017784  00000+0  47014-3 0  9993
2 57201  97.5083 248.1348 0006968  51.3010 308.8857 15.38455146166204
SITRO-AIS 12 (SMIRENNIY)
1 57204U 23091AQ  26177.69672051  .00018252  00000+0  47789-3 0  9997
2 57204  97.5095 248.6631 0006446  45.9343 314.2432 15.38750568166238
SITRO-AIS 11 (SHEFFER)  
1 57208U 23091AU  26177.70749407  .00018063  00000+0  46640-3 0  9998
2 57208  97.5095 248.9268 0006327  45.4657 314.7104 15.39180638166251
SITRO-AIS 25            
1 59066U 24039R   26177.75589777  .00002147  00000+0  16965-3 0  9995
2 59066  95.3908 241.6680 0142589 294.9133  63.7330 14.93556074126150
SITRO-AIS 26            
1 59067U 24039S   26177.75857992  .00002123  00000+0  16856-3 0  9996
2 59067  95.3909 241.5655 0142947 295.5030  63.1468 14.93350299126140
SITRO-AIS 27            
1 59068U 24039T   26177.65915667  .00003061  00000+0  23964-3 0  9990
2 59068  95.3913 241.7732 0141878 294.4224  64.2253 14.93772069126157
SITRO-AIS 28            
1 59071U 24039U   26177.77035546  .00002608  00000+0  20442-3 0  9990
2 59071  95.3910 241.8975 0141883 293.8555  64.7856 14.93804330126177
GRBBETA                 
1 60237U 24128C   26177.57781919  .00003256  00000+0  22893-3 0  9997
2 60237  61.9878 183.3174 0039451 136.6258 223.7951 15.06690888107681
OOV-CUBE (TUBSAT-30)    
1 60240U 24128F   26177.30430608  .00001677  00000+0  13798-3 0  9997
2 60240  61.9924 193.7808 0043497 135.8027 224.6553 15.02804000107481
ROBUSTA-3A (MEDITERRAN*)
1 60243U 24128J   26177.32907742  .00005597  00000+0  33331-3 0  9990
2 60243  61.9842 175.9128 0040139 130.0414 230.4214 15.11754630107805
LASARSAT                
1 62391U 24247Q   26177.53530899  .00029264  00000+0  57325-3 0  9992
2 62391  44.9728 209.6636 0007194  27.8989 332.2285 15.46893107 84767
CROCUBE                 
1 62394U 24247T   26175.39308509  .00030725  00000+0  56517-3 0  9994
2 62394  44.9701 218.9251 0007226  18.8099 341.3058 15.48681185 84464
FORESAIL-1 PRIME        
1 66778U 25276DS  26177.68183133  .00005118  00000+0  24930-3 0  9997
2 66778  97.4202 250.7789 0003907  84.1634 276.0046 15.18782211 31840
KNACKSAT-2              
1 67683U 98067XZ  26177.44486485  .00049509  00000+0  58452-3 0  9999
2 67683  51.6280 247.8833 0008675 257.0459 102.9566 15.60782463 21720
